STARLINK-31936          
1 59875U 24098T   26068.53805881  .00000654  00000+0  33307-4 0  9991
2 59875  43.0038 246.5196 0001152 272.6607  87.4113 15.27575371102185
REAL                    
1 64875U 25154G   26068.72233414  .00022901  00000+0  82904-3 0  9994
2 64875  97.4133 137.2581 0001853 118.5876 241.5550 15.28408058 34830
